{
 "type": "FeatureCollection",
 "name": "rule_a_aoi",
 "features": [
  {
   "type": "Feature",
   "properties": {
    "name": "rule_a_aoi",
    "source": "explore_rules_kept_vs_gone :: aoiA"
   },
   "geometry": {
    "type": "Polygon",
    "coordinates": [
     [
      [
       -59.474582051183425,
       -39.12381376030274
      ],
      [
       -57.519015644933425,
       -38.52897701669399
      ],
      [
       -56.085299824620925,
       -37.33318965137589
      ],
      [
       -56.67252119509469,
       -36.08819024746327
      ],
      [
       -56.81534346071969,
       -35.64749409154765
      ],
      [
       -57.50036440467511,
       -34.91556796471657
      ],
      [
       -58.38476381873761,
       -34.586090940103986
      ],
      [
       -59.06042299842511,
       -34.15081053297368
      ],
      [
       -59.59325991248761,
       -33.8365592073309
      ],
      [
       -60.70837221717511,
       -33.11260969473427
      ],
      [
       -60.94457827186261,
       -32.48000959458702
      ],
      [
       -61.01598940467511,
       -32.12249210432738
      ],
      [
       -60.90612612342511,
       -31.74488483053505
      ],
      [
       -60.69738588905011,
       -31.3235084364778
      ],
      [
       -60.71200727523789,
       -31.028601890263076
      ],
      [
       -61.63485883773789,
       -30.594562482667495
      ],
      [
       -62.22812055648789,
       -30.87785417047347
      ],
      [
       -63.96396040023789,
       -31.329382045034272
      ],
      [
       -64.29355024398788,
       -32.578434479566525
      ],
      [
       -64.99667524398788,
       -33.462747159154766
      ],
      [
       -64.71103071273788,
       -34.24736434693688
      ],
      [
       -64.33749555648788,
       -35.00673867023318
      ],
      [
       -64.07382368148788,
       -35.9372329423716
      ],
      [
       -63.32675336898789,
       -37.452316832673766
      ],
      [
       -61.74472211898789,
       -39.10802742229012
      ],
      [
       -59.474582051183425,
       -39.12381376030274
      ]
     ]
    ]
   }
  }
 ]
}
